CCSDS_OMM_VERS = 2.0
CREATION_DATE  = 
ORIGINATOR     = 

OBJECT_NAME    = SL-14 R/B
OBJECT_ID      = 1986-046B
CENTER_NAME    = EARTH
REF_FRAME      = TEME
TIME_SYSTEM    = UTC
MEAN_ELEMENT_THEORY = SGP/SGP4

EPOCH          = 2026-03-05T03:50:08.582784
MEAN_MOTION    = 14.85585122
ECCENTRICITY   = .00217209
INCLINATION    = 82.4782
RA_OF_ASC_NODE = 84.4633
ARG_OF_PERICENTER = 241.1737
MEAN_ANOMALY   = 118.7298

EPHEMERIS_TYPE = 0
CLASSIFICATION_TYPE = U
NORAD_CAT_ID   = 16792
ELEMENT_SET_NO = 999
REV_AT_EPOCH   = 12573
BSTAR          = .64488934E-4
MEAN_MOTION_DOT = .584E-5
MEAN_MOTION_DDOT = 0

CCSDS_OMM_VERS = 2.0
CREATION_DATE  = 
ORIGINATOR     = 

OBJECT_NAME    = SL-14 R/B
OBJECT_ID      = 1986-055B
CENTER_NAME    = EARTH
REF_FRAME      = TEME
TIME_SYSTEM    = UTC
MEAN_ELEMENT_THEORY = SGP/SGP4

EPOCH          = 2026-03-05T05:19:04.467936
MEAN_MOTION    = 14.85638175
ECCENTRICITY   = .0018571
INCLINATION    = 82.5210
RA_OF_ASC_NODE = 130.8738
ARG_OF_PERICENTER = 351.7184
MEAN_ANOMALY   = 62.4622

EPHEMERIS_TYPE = 0
CLASSIFICATION_TYPE = U
NORAD_CAT_ID   = 16882
ELEMENT_SET_NO = 999
REV_AT_EPOCH   = 11870
BSTAR          = .70245042E-4
MEAN_MOTION_DOT = .634E-5
MEAN_MOTION_DDOT = 0

CCSDS_OMM_VERS = 2.0
CREATION_DATE  = 
ORIGINATOR     = 

OBJECT_NAME    = AJISAI (EGS)
OBJECT_ID      = 1986-061A
CENTER_NAME    = EARTH
REF_FRAME      = TEME
TIME_SYSTEM    = UTC
MEAN_ELEMENT_THEORY = SGP/SGP4

EPOCH          = 2026-03-05T07:14:36.668256
MEAN_MOTION    = 12.44515601
ECCENTRICITY   = .0011254
INCLINATION    = 50.0080
RA_OF_ASC_NODE = 106.8410
ARG_OF_PERICENTER = 275.6992
MEAN_ANOMALY   = 167.9845

EPHEMERIS_TYPE = 0
CLASSIFICATION_TYPE = U
NORAD_CAT_ID   = 16908
ELEMENT_SET_NO = 999
REV_AT_EPOCH   = 46745
BSTAR          = .16762894E-3
MEAN_MOTION_DOT = -.74E-6
MEAN_MOTION_DDOT = 0

CCSDS_OMM_VERS = 2.0
CREATION_DATE  = 
ORIGINATOR     = 

OBJECT_NAME    = COSMOS 1812
OBJECT_ID      = 1987-003A
CENTER_NAME    = EARTH
REF_FRAME      = TEME
TIME_SYSTEM    = UTC
MEAN_ELEMENT_THEORY = SGP/SGP4

EPOCH          = 2026-03-05T06:38:26.505888
MEAN_MOTION    = 16.34939650
ECCENTRICITY   = .00094546
INCLINATION    = 82.4662
RA_OF_ASC_NODE = 200.6099
ARG_OF_PERICENTER = 280.2072
MEAN_ANOMALY   = 79.8157

EPHEMERIS_TYPE = 0
CLASSIFICATION_TYPE = U
NORAD_CAT_ID   = 17295
ELEMENT_SET_NO = 999
REV_AT_EPOCH   = 14377
BSTAR          = .60814253E-3
MEAN_MOTION_DOT = .4336969E-1
MEAN_MOTION_DDOT = -.1247765E-5

CCSDS_OMM_VERS = 2.0
CREATION_DATE  = 
ORIGINATOR     = 

OBJECT_NAME    = SL-14 R/B
OBJECT_ID      = 1987-024B
CENTER_NAME    = EARTH
REF_FRAME      = TEME
TIME_SYSTEM    = UTC
MEAN_ELEMENT_THEORY = SGP/SGP4

EPOCH          = 2026-03-05T07:54:32.080608
MEAN_MOTION    = 14.86127386
ECCENTRICITY   = .00166704
INCLINATION    = 82.5251
RA_OF_ASC_NODE = 96.8630
ARG_OF_PERICENTER = 275.7137
MEAN_ANOMALY   = 84.2178

EPHEMERIS_TYPE = 0
CLASSIFICATION_TYPE = U
NORAD_CAT_ID   = 17567
ELEMENT_SET_NO = 999
REV_AT_EPOCH   = 8748
BSTAR          = .66923535E-4
MEAN_MOTION_DOT = .612E-5
MEAN_MOTION_DDOT = 0

CCSDS_OMM_VERS = 2.0
CREATION_DATE  = 
ORIGINATOR     = 

OBJECT_NAME    = COSMOS 1833
OBJECT_ID      = 1987-027A
CENTER_NAME    = EARTH
REF_FRAME      = TEME
TIME_SYSTEM    = UTC
MEAN_ELEMENT_THEORY = SGP/SGP4

EPOCH          = 2026-03-05T04:30:57.233088
MEAN_MOTION    = 14.13055825
ECCENTRICITY   = .00244789
INCLINATION    = 70.9232
RA_OF_ASC_NODE = 335.4791
ARG_OF_PERICENTER = 220.7927
MEAN_ANOMALY   = 139.1363

EPHEMERIS_TYPE = 0
CLASSIFICATION_TYPE = U
NORAD_CAT_ID   = 17589
ELEMENT_SET_NO = 999
REV_AT_EPOCH   = 968
BSTAR          = -.44564818E-4
MEAN_MOTION_DOT = -.132E-5
MEAN_MOTION_DDOT = 0

CCSDS_OMM_VERS = 2.0
CREATION_DATE  = 
ORIGINATOR     = 

OBJECT_NAME    = SL-16 R/B
OBJECT_ID      = 1987-027B
CENTER_NAME    = EARTH
REF_FRAME      = TEME
TIME_SYSTEM    = UTC
MEAN_ELEMENT_THEORY = SGP/SGP4

EPOCH          = 2026-03-05T00:48:32.397120
MEAN_MOTION    = 14.17165983
ECCENTRICITY   = .00036285
INCLINATION    = 71.0015
RA_OF_ASC_NODE = 286.3071
ARG_OF_PERICENTER = 152.8419
MEAN_ANOMALY   = 207.2895

EPHEMERIS_TYPE = 0
CLASSIFICATION_TYPE = U
NORAD_CAT_ID   = 17590
ELEMENT_SET_NO = 999
REV_AT_EPOCH   = 1468
BSTAR          = -.59456157E-4
MEAN_MOTION_DOT = -.168E-5
MEAN_MOTION_DDOT = 0

CCSDS_OMM_VERS = 2.0
CREATION_DATE  = 
ORIGINATOR     = 

OBJECT_NAME    = SL-14 R/B
OBJECT_ID      = 1987-038B
CENTER_NAME    = EARTH
REF_FRAME      = TEME
TIME_SYSTEM    = UTC
MEAN_ELEMENT_THEORY = SGP/SGP4

EPOCH          = 2026-03-05T06:07:03.589824
MEAN_MOTION    = 14.85364844
ECCENTRICITY   = .00193014
INCLINATION    = 82.5009
RA_OF_ASC_NODE = 300.9857
ARG_OF_PERICENTER = 174.8609
MEAN_ANOMALY   = 185.2809

EPHEMERIS_TYPE = 0
CLASSIFICATION_TYPE = U
NORAD_CAT_ID   = 17912
ELEMENT_SET_NO = 999
REV_AT_EPOCH   = 7857
BSTAR          = .66948282E-4
MEAN_MOTION_DOT = .602E-5
MEAN_MOTION_DDOT = 0

CCSDS_OMM_VERS = 2.0
CREATION_DATE  = 
ORIGINATOR     = 

OBJECT_NAME    = COSMOS 1844
OBJECT_ID      = 1987-041A
CENTER_NAME    = EARTH
REF_FRAME      = TEME
TIME_SYSTEM    = UTC
MEAN_ELEMENT_THEORY = SGP/SGP4

EPOCH          = 2026-03-05T05:28:28.984800
MEAN_MOTION    = 14.14553139
ECCENTRICITY   = .00297532
INCLINATION    = 70.8996
RA_OF_ASC_NODE = 43.5855
ARG_OF_PERICENTER = 24.5193
MEAN_ANOMALY   = 335.7336

EPHEMERIS_TYPE = 0
CLASSIFICATION_TYPE = U
NORAD_CAT_ID   = 17973
ELEMENT_SET_NO = 999
REV_AT_EPOCH   = 295
BSTAR          = -.23204198E-4
MEAN_MOTION_DOT = -.93E-6
MEAN_MOTION_DDOT = 0

CCSDS_OMM_VERS = 2.0
CREATION_DATE  = 
ORIGINATOR     = 

OBJECT_NAME    = SL-14 R/B
OBJECT_ID      = 1987-055B
CENTER_NAME    = EARTH
REF_FRAME      = TEME
TIME_SYSTEM    = UTC
MEAN_ELEMENT_THEORY = SGP/SGP4

EPOCH          = 2026-03-05T05:34:58.630656
MEAN_MOTION    = 14.85623384
ECCENTRICITY   = .00215284
INCLINATION    = 82.5029
RA_OF_ASC_NODE = 353.2306
ARG_OF_PERICENTER = 32.1148
MEAN_ANOMALY   = 328.1375

EPHEMERIS_TYPE = 0
CLASSIFICATION_TYPE = U
NORAD_CAT_ID   = 18153
ELEMENT_SET_NO = 999
REV_AT_EPOCH   = 6927
BSTAR          = .91927659E-4
MEAN_MOTION_DOT = .823E-5
MEAN_MOTION_DDOT = 0

CCSDS_OMM_VERS = 2.0
CREATION_DATE  = 
ORIGINATOR     = 

OBJECT_NAME    = COSMOS 1867
OBJECT_ID      = 1987-060A
CENTER_NAME    = EARTH
REF_FRAME      = TEME
TIME_SYSTEM    = UTC
MEAN_ELEMENT_THEORY = SGP/SGP4

EPOCH          = 2026-03-05T02:38:11.367456
MEAN_MOTION    = 14.31502252
ECCENTRICITY   = .00144182
INCLINATION    = 65.0117
RA_OF_ASC_NODE = 319.5309
ARG_OF_PERICENTER = 278.3689
MEAN_ANOMALY   = 81.5761

EPHEMERIS_TYPE = 0
CLASSIFICATION_TYPE = U
NORAD_CAT_ID   = 18187
ELEMENT_SET_NO = 999
REV_AT_EPOCH   = 1928
BSTAR          = .41240629E-4
MEAN_MOTION_DOT = .1E-6
MEAN_MOTION_DDOT = 0

CCSDS_OMM_VERS = 2.0
CREATION_DATE  = 
ORIGINATOR     = 

OBJECT_NAME    = SL-14 R/B
OBJECT_ID      = 1988-001B
CENTER_NAME    = EARTH
REF_FRAME      = TEME
TIME_SYSTEM    = UTC
MEAN_ELEMENT_THEORY = SGP/SGP4

EPOCH          = 2026-03-05T02:13:45.867072
MEAN_MOTION    = 14.85520904
ECCENTRICITY   = .00166483
INCLINATION    = 82.5145
RA_OF_ASC_NODE = 199.6826
ARG_OF_PERICENTER = 252.1539
MEAN_ANOMALY   = 107.7861

EPHEMERIS_TYPE = 0
CLASSIFICATION_TYPE = U
NORAD_CAT_ID   = 18749
ELEMENT_SET_NO = 999
REV_AT_EPOCH   = 4134
BSTAR          = .85141858E-4
MEAN_MOTION_DOT = .76E-5
MEAN_MOTION_DDOT = 0

